OBJECT_NAME,OBJECT_ID,EPOCH,MEAN_MOTION,ECCENTRICITY,INCLINATION,RA_OF_ASC_NODE,ARG_OF_PERICENTER,MEAN_ANOMALY,EPHEMERIS_TYPE,CLASSIFICATION_TYPE,NORAD_CAT_ID,ELEMENT_SET_NO,REV_AT_EPOCH,BSTAR,MEAN_MOTION_DOT,MEAN_MOTION_DDOT
H-2A R/B,2006-002B,2026-06-04T00:03:58.149504,15.17891973,.00496693,98.2552,309.6413,308.2411,51.4355,0,U,28932,999,10752,.30250412E-3,.6247E-4,0
RESURS-DK 1,2006-021A,2026-06-04T17:45:30.511008,15.13159545,.00060866,69.9333,11.7730,302.4900,57.5678,0,U,29228,999,10069,.156947E-3,.2682E-4,0
CZ-4B R/B,2006-046C,2026-06-04T15:50:55.754592,15.17688077,.00316338,97.5456,200.3066,328.2337,31.6987,0,U,29507,999,7323,.25463864E-3,.5127E-4,0
CZ-2C R/B,2007-010B,2026-06-04T17:33:15.744672,14.20273269,.00597103,98.4089,264.6925,42.1030,318.4712,0,U,31114,999,99207,.73033774E-4,.118E-5,0
COSMO-SKYMED 1,2007-023A,2026-06-04T23:17:24.321696,14.97046745,.00014859,97.8862,347.7245,81.4524,278.6865,0,U,31598,999,2796,.22063861E-3,.2482E-4,0
COSMOS 2428,2007-029A,2026-06-04T18:06:20.440800,14.12931137,.00073286,70.9380,20.5827,158.8925,201.2500,0,U,31792,999,97639,-.72262053E-4,-.183E-5,0
SL-16 R/B,2007-029B,2026-06-04T17:46:09.491232,14.14847943,.00022934,70.9758,349.3949,257.6500,180.7732,0,U,31793,999,97768,.13180835E-3,.207E-5,0
KORONAS-FOTON,2009-003A,2026-06-04T21:46:02.055936,15.45460125,.00103163,82.4288,185.0673,189.3340,170.7719,0,U,33504,999,95920,.24987253E-3,.12027E-3,0
CZ-2C R/B,2011-030B,2026-06-04T05:08:43.192320,14.81438717,.00537963,97.8650,110.8357,69.2961,26.3935,0,U,37731,999,80290,.20182364E-3,.1565E-4,0
H-2A R/B,2012-025E,2026-06-03T23:27:54.868896,14.95639537,.00447139,98.4819,129.0360,31.6803,328.7092,0,U,38341,999,76111,.26873077E-3,.2976E-4,0
SHIJIAN-16 (SJ-16),2013-057A,2026-06-04T23:21:35.604000,14.92583190,.00169638,74.9731,19.8176,258.8095,101.1186,0,U,39358,999,68452,.14810224E-3,.1498E-4,0
SL-4 R/B,2014-021B,2026-06-03T15:31:29.208576,15.41642817,.00917058,51.6063,277.0919,56.7885,304.1851,0,U,39679,999,66952,.25569107E-3,.12294E-3,0
ALOS-2,2014-029A,2026-06-04T13:25:35.571072,14.79487434,.0001603,97.9217,252.9044,94.8920,265.2475,0,U,39766,999,64971,.24177425E-3,.1755E-4,0
YAOGAN-29,2015-069A,2026-06-04T23:11:06.713952,14.83074525,.00029518,98.0027,184.5792,74.6189,285.5350,0,U,41038,999,56881,.77409072E-4,.576E-5,0
ASTRO-H (HITOMI),2016-012A,2026-06-02T07:09:10.946304,15.10444105,.00094747,30.9972,170.3433,103.6260,256.5434,0,U,41337,999,56503,.13655145E-3,.2399E-4,0
HXMT (HUIYAN),2017-034A,2026-06-04T18:25:20.661600,15.18378778,.00302378,43.0139,252.1936,65.0432,295.3553,0,U,42758,999,49577,.2691798E-3,.5458E-4,0
SAOCOM 1A,2018-076A,2026-06-04T21:59:57.914592,14.82163700,.00015128,97.8880,342.8434,75.4528,284.6853,0,U,43641,999,41428,-.4379558E-5,-.87E-6,0
H-2A R/B,2018-084L,2026-06-04T05:44:20.032800,15.44635255,.00245616,98.8590,31.3044,83.7841,276.6200,0,U,43682,999,41912,.42717046E-3,.20027E-3,0
SAOCOM 1B,2020-059A,2026-06-04T22:44:59.032608,14.82162138,.00014809,97.8884,341.9684,81.2513,278.8868,0,U,46265,999,31167,.10128162E-3,.754E-5,0
CSS (TIANHE),2021-035A,2026-06-04T21:09:33.370272,15.60264942,.00095733,41.4694,36.8620,343.5452,16.5074,0,U,48274,999,29124,.28405096E-3,.23646E-3,0
COSMOS 2550,2021-056A,2026-06-03T06:21:27.029088,15.33822322,.00082078,67.1411,142.0174,269.6582,90.3631,0,U,48865,999,27658,.18579141E-3,.5924E-4,0
CZ-2C R/B,2022-058K,2026-06-03T16:11:44.748672,15.60905044,.00333564,50.1849,233.7798,210.9387,148.9621,0,U,52794,999,22353,.46258954E-3,.40279E-3,0
CZ-2C R/B,2022-132E,2026-06-04T14:27:40.033152,15.70032598,.00171387,97.2904,162.0786,122.7860,237.5057,0,U,54039,999,20397,.4723197E-3,.57386E-3,0
GSLV R/B,2022-138AN,2026-06-04T00:25:56.720640,14.97194298,.00206476,87.3794,137.4067,190.2739,169.8074,0,U,54149,999,19684,.25540066E-3,.2993E-4,0
XRISM,2023-137A,2026-06-02T06:36:16.681248,15.12327778,.00076942,31.0020,96.1840,175.1081,184.9634,0,U,57800,999,15060,.31044403E-3,.5615E-4,0
ACS3,2024-077B,2026-06-04T15:25:56.636832,13.93477232,.00434024,97.1687,77.2322,64.6834,295.8818,0,U,59588,999,10629,.36263847E-1,.48144E-3,0
SZ-21 MODULE,2025-246C,2026-06-01T22:35:51.528768,15.75039202,.00071014,41.4749,42.1841,261.1371,98.8669,0,U,66515,999,3133,.30884922E-3,.47427E-3,0
